[{"OBJECT_NAME":"SKYNET 5D","OBJECT_ID":"2012-075A","EPOCH":"2026-03-07T07:50:38.796288","MEAN_MOTION":1.00270209,"ECCENTRICITY":0.00040299,"INCLINATION":0.0693,"RA_OF_ASC_NODE":345.7298,"ARG_OF_PERICENTER":359.5985,"MEAN_ANOMALY":350.0948,"EPHEMERIS_TYPE":0,"CLASSIFICATION_TYPE":"U","NORAD_CAT_ID":39034,"ELEMENT_SET_NO":999,"REV_AT_EPOCH":4813,"BSTAR":0,"MEAN_MOTION_DOT":9.8e-7,"MEAN_MOTION_DDOT":0},{"OBJECT_NAME":"MEXSAT 3","OBJECT_ID":"2012-075B","EPOCH":"2026-03-07T11:10:26.474016","MEAN_MOTION":1.00269241,"ECCENTRICITY":0.00013388,"INCLINATION":0.0268,"RA_OF_ASC_NODE":233.0725,"ARG_OF_PERICENTER":105.0629,"MEAN_ANOMALY":239.852,"EPHEMERIS_TYPE":0,"CLASSIFICATION_TYPE":"U","NORAD_CAT_ID":39035,"ELEMENT_SET_NO":999,"REV_AT_EPOCH":603,"BSTAR":0,"MEAN_MOTION_DOT":-2.7e-7,"MEAN_MOTION_DDOT":0},{"OBJECT_NAME":"TDRS 11","OBJECT_ID":"2013-004A","EPOCH":"2026-03-07T07:27:33.225408","MEAN_MOTION":1.00277594,"ECCENTRICITY":0.00040282,"INCLINATION":3.3716,"RA_OF_ASC_NODE":29.4083,"ARG_OF_PERICENTER":351.806,"MEAN_ANOMALY":81.3971,"EPHEMERIS_TYPE":0,"CLASSIFICATION_TYPE":"U","NORAD_CAT_ID":39070,"ELEMENT_SET_NO":999,"REV_AT_EPOCH":4567,"BSTAR":0,"MEAN_MOTION_DOT":8.0e-7,"MEAN_MOTION_DDOT":0},{"OBJECT_NAME":"AMAZONAS 3","OBJECT_ID":"2013-006A","EPOCH":"2026-03-07T06:46:54.013440","MEAN_MOTION":1.00274428,"ECCENTRICITY":0.00024782,"INCLINATION":0.0485,"RA_OF_ASC_NODE":240.0525,"ARG_OF_PERICENTER":86.3328,"MEAN_ANOMALY":239.2941,"EPHEMERIS_TYPE":0,"CLASSIFICATION_TYPE":"U","NORAD_CAT_ID":39078,"ELEMENT_SET_NO":999,"REV_AT_EPOCH":4389,"BSTAR":0,"MEAN_MOTION_DOT":-2.84e-6,"MEAN_MOTION_DDOT":0},{"OBJECT_NAME":"AZERSPACE 1","OBJECT_ID":"2013-006B","EPOCH":"2026-03-07T07:58:38.502912","MEAN_MOTION":1.00276698,"ECCENTRICITY":0.00010833,"INCLINATION":0.0226,"RA_OF_ASC_NODE":251.8212,"ARG_OF_PERICENTER":128.562,"MEAN_ANOMALY":310.3373,"EPHEMERIS_TYPE":0,"CLASSIFICATION_TYPE":"U","NORAD_CAT_ID":39079,"ELEMENT_SET_NO":999,"REV_AT_EPOCH":4778,"BSTAR":0,"MEAN_MOTION_DOT":1.31e-6,"MEAN_MOTION_DDOT":0},{"OBJECT_NAME":"SBIRS GEO-2 (USA 241)","OBJECT_ID":"2013-011A","EPOCH":"2026-03-07T06:50:08.702016","MEAN_MOTION":1.00271651,"ECCENTRICITY":0.00022011,"INCLINATION":4.2679,"RA_OF_ASC_NODE":52.385,"ARG_OF_PERICENTER":293.9906,"MEAN_ANOMALY":231.352,"EPHEMERIS_TYPE":0,"CLASSIFICATION_TYPE":"U","NORAD_CAT_ID":39120,"ELEMENT_SET_NO":999,"REV_AT_EPOCH":4751,"BSTAR":0,"MEAN_MOTION_DOT":-2.87e-6,"MEAN_MOTION_DDOT":0},{"OBJECT_NAME":"EUTELSAT 117 WEST A","OBJECT_ID":"2013-012A","EPOCH":"2026-03-07T08:34:38.622144","MEAN_MOTION":1.00271642,"ECCENTRICITY":0.00029078,"INCLINATION":0.0477,"RA_OF_ASC_NODE":297.2821,"ARG_OF_PERICENTER":54.4451,"MEAN_ANOMALY":185.1802,"EPHEMERIS_TYPE":0,"CLASSIFICATION_TYPE":"U","NORAD_CAT_ID":39122,"ELEMENT_SET_NO":999,"REV_AT_EPOCH":4741,"BSTAR":0,"MEAN_MOTION_DOT":-1.5e-7,"MEAN_MOTION_DDOT":0},{"OBJECT_NAME":"ANIK G1","OBJECT_ID":"2013-014A","EPOCH":"2026-03-07T08:10:21.015264","MEAN_MOTION":1.00272104,"ECCENTRICITY":0.0002903,"INCLINATION":0.0477,"RA_OF_ASC_NODE":267.9138,"ARG_OF_PERICENTER":59.9759,"MEAN_ANOMALY":212.4293,"EPHEMERIS_TYPE":0,"CLASSIFICATION_TYPE":"U","NORAD_CAT_ID":39127,"ELEMENT_SET_NO":999,"REV_AT_EPOCH":4723,"BSTAR":0,"MEAN_MOTION_DOT":-7.6e-7,"MEAN_MOTION_DDOT":0},{"OBJECT_NAME":"ZHONGXING-11","OBJECT_ID":"2013-020A","EPOCH":"2026-03-07T14:08:04.149888","MEAN_MOTION":1.00271319,"ECCENTRICITY":7.563e-5,"INCLINATION":0.0104,"RA_OF_ASC_NODE":286.6193,"ARG_OF_PERICENTER":83.1257,"MEAN_ANOMALY":105.4981,"EPHEMERIS_TYPE":0,"CLASSIFICATION_TYPE":"U","NORAD_CAT_ID":39157,"ELEMENT_SET_NO":999,"REV_AT_EPOCH":4688,"BSTAR":0,"MEAN_MOTION_DOT":-2.92e-6,"MEAN_MOTION_DDOT":0},{"OBJECT_NAME":"EUTELSAT 7B","OBJECT_ID":"2013-022A","EPOCH":"2026-03-07T06:22:38.729856","MEAN_MOTION":1.00273436,"ECCENTRICITY":0.0006339,"INCLINATION":0.0682,"RA_OF_ASC_NODE":357.7976,"ARG_OF_PERICENTER":359.0313,"MEAN_ANOMALY":270.7911,"EPHEMERIS_TYPE":0,"CLASSIFICATION_TYPE":"U","NORAD_CAT_ID":39163,"ELEMENT_SET_NO":999,"REV_AT_EPOCH":4692,"BSTAR":0,"MEAN_MOTION_DOT":4.6e-7,"MEAN_MOTION_DDOT":0},{"OBJECT_NAME":"WGS F5 (USA 243)","OBJECT_ID":"2013-024A","EPOCH":"2026-03-07T07:02:38.643648","MEAN_MOTION":1.00272209,"ECCENTRICITY":2.996e-5,"INCLINATION":0.008,"RA_OF_ASC_NODE":142.0249,"ARG_OF_PERICENTER":253.6828,"MEAN_ANOMALY":182.4589,"EPHEMERIS_TYPE":0,"CLASSIFICATION_TYPE":"U","NORAD_CAT_ID":39168,"ELEMENT_SET_NO":999,"REV_AT_EPOCH":4615,"BSTAR":0,"MEAN_MOTION_DOT":-2.86e-6,"MEAN_MOTION_DDOT":0},{"OBJECT_NAME":"SES-6","OBJECT_ID":"2013-026A","EPOCH":"2026-03-07T07:02:02.645088","MEAN_MOTION":1.0027143,"ECCENTRICITY":0.000187,"INCLINATION":0.0597,"RA_OF_ASC_NODE":290.9562,"ARG_OF_PERICENTER":69.8943,"MEAN_ANOMALY":229.1397,"EPHEMERIS_TYPE":0,"CLASSIFICATION_TYPE":"U","NORAD_CAT_ID":39172,"ELEMENT_SET_NO":999,"REV_AT_EPOCH":4670,"BSTAR":0,"MEAN_MOTION_DOT":-2.63e-6,"MEAN_MOTION_DDOT":0},{"OBJECT_NAME":"IRNSS-1A","OBJECT_ID":"2013-034A","EPOCH":"2026-03-03T14:19:51.811680","MEAN_MOTION":1.00269823,"ECCENTRICITY":0.0017825,"INCLINATION":35.4874,"RA_OF_ASC_NODE":65.3779,"ARG_OF_PERICENTER":190.7092,"MEAN_ANOMALY":175.2371,"EPHEMERIS_TYPE":0,"CLASSIFICATION_TYPE":"U","NORAD_CAT_ID":39199,"ELEMENT_SET_NO":999,"REV_AT_EPOCH":4631,"BSTAR":0,"MEAN_MOTION_DOT":8.1e-7,"MEAN_MOTION_DDOT":0},{"OBJECT_NAME":"ALPHASAT","OBJECT_ID":"2013-038A","EPOCH":"2026-03-07T08:16:51.608928","MEAN_MOTION":1.00281225,"ECCENTRICITY":0.00022878,"INCLINATION":2.9818,"RA_OF_ASC_NODE":2.2047,"ARG_OF_PERICENTER":13.7419,"MEAN_ANOMALY":298.1925,"EPHEMERIS_TYPE":0,"CLASSIFICATION_TYPE":"U","NORAD_CAT_ID":39215,"ELEMENT_SET_NO":999,"REV_AT_EPOCH":4299,"BSTAR":0,"MEAN_MOTION_DOT":1.34e-6,"MEAN_MOTION_DDOT":0},{"OBJECT_NAME":"INSAT-3D","OBJECT_ID":"2013-038B","EPOCH":"2026-03-07T14:32:48.510528","MEAN_MOTION":1.0027216,"ECCENTRICITY":0.00016583,"INCLINATION":1.6634,"RA_OF_ASC_NODE":83.8695,"ARG_OF_PERICENTER":250.1631,"MEAN_ANOMALY":178.9722,"EPHEMERIS_TYPE":0,"CLASSIFICATION_TYPE":"U","NORAD_CAT_ID":39216,"ELEMENT_SET_NO":999,"REV_AT_EPOCH":4606,"BSTAR":0,"MEAN_MOTION_DOT":-3.4e-6,"MEAN_MOTION_DDOT":0},{"OBJECT_NAME":"WGS F6 (USA 244)","OBJECT_ID":"2013-041A","EPOCH":"2026-03-07T12:33:38.603808","MEAN_MOTION":1.00273152,"ECCENTRICITY":0.00013581,"INCLINATION":0.0206,"RA_OF_ASC_NODE":146.5972,"ARG_OF_PERICENTER":186.7657,"MEAN_ANOMALY":245.0743,"EPHEMERIS_TYPE":0,"CLASSIFICATION_TYPE":"U","NORAD_CAT_ID":39222,"ELEMENT_SET_NO":999,"REV_AT_EPOCH":4504,"BSTAR":0,"MEAN_MOTION_DOT":8.8e-7,"MEAN_MOTION_DDOT":0},{"OBJECT_NAME":"ES'HAIL 1","OBJECT_ID":"2013-044A","EPOCH":"2026-03-07T05:28:53.990688","MEAN_MOTION":1.00272722,"ECCENTRICITY":0.000306,"INCLINATION":0.0561,"RA_OF_ASC_NODE":2.6986,"ARG_OF_PERICENTER":349.6762,"MEAN_ANOMALY":280.2692,"EPHEMERIS_TYPE":0,"CLASSIFICATION_TYPE":"U","NORAD_CAT_ID":39233,"ELEMENT_SET_NO":999,"REV_AT_EPOCH":4560,"BSTAR":0,"MEAN_MOTION_DOT":1.41e-6,"MEAN_MOTION_DDOT":0}]
