SKYNET 5D               
1 39034U 12075A   26066.32683792  .00000098  00000+0  00000+0 0  9999
2 39034   0.0693 345.7298 0004029 359.5985 350.0948  1.00270209 48132
MEXSAT 3                
1 39035U 12075B   26066.46558419 -.00000027  00000+0  00000+0 0  9995
2 39035   0.0268 233.0725 0001338 105.0629 239.8520  1.00269241  6031
TDRS 11                 
1 39070U 13004A   26066.31080122  .00000080  00000+0  00000+0 0  9990
2 39070   3.3716  29.4083 0004028 351.8060  81.3971  1.00277594 45670
AMAZONAS 3              
1 39078U 13006A   26066.28256960 -.00000284  00000+0  00000+0 0  9998
2 39078   0.0485 240.0525 0002478  86.3328 239.2941  1.00274428 43897
AZERSPACE 1             
1 39079U 13006B   26066.33239008  .00000131  00000+0  00000+0 0  9999
2 39079   0.0226 251.8212 0001083 128.5620 310.3373  1.00276698 47782
SBIRS GEO-2 (USA 241)   
1 39120U 13011A   26066.28482294 -.00000287  00000+0  00000+0 0  9996
2 39120   4.2679  52.3850 0002201 293.9906 231.3520  1.00271651 47517
EUTELSAT 117 WEST A     
1 39122U 13012A   26066.35739146 -.00000015  00000+0  00000+0 0  9997
2 39122   0.0477 297.2821 0002907  54.4451 185.1802  1.00271642 47413
ANIK G1                 
1 39127U 13014A   26066.34052101 -.00000076  00000+0  00000+0 0  9999
2 39127   0.0477 267.9138 0002903  59.9759 212.4293  1.00272104 47232
ZHONGXING-11            
1 39157U 13020A   26066.58893692 -.00000292  00000+0  00000+0 0  9993
2 39157   0.0104 286.6193 0000756  83.1257 105.4981  1.00271319 46889
EUTELSAT 7B             
1 39163U 13022A   26066.26572604  .00000046  00000+0  00000+0 0  9990
2 39163   0.0682 357.7976 0006339 359.0313 270.7911  1.00273436 46923
WGS F5 (USA 243)        
1 39168U 13024A   26066.29350282 -.00000286  00000+0  00000+0 0  9993
2 39168   0.0080 142.0249 0000299 253.6828 182.4589  1.00272209 46159
SES-6                   
1 39172U 13026A   26066.29308617 -.00000263  00000+0  00000+0 0  9990
2 39172   0.0597 290.9562 0001870  69.8943 229.1397  1.00271430 46701
IRNSS-1A                
1 39199U 13034A   26062.59712745  .00000081  00000+0  00000+0 0  9995
2 39199  35.4874  65.3779 0017825 190.7092 175.2371  1.00269823 46313
ALPHASAT                
1 39215U 13038A   26066.34504177  .00000134  00000+0  00000+0 0  9992
2 39215   2.9818   2.2047 0002287  13.7419 298.1925  1.00281225 42990
INSAT-3D                
1 39216U 13038B   26066.60611702 -.00000340  00000+0  00000+0 0  9995
2 39216   1.6634  83.8695 0001658 250.1631 178.9722  1.00272160 46061
WGS F6 (USA 244)        
1 39222U 13041A   26066.52336347  .00000088  00000+0  00000+0 0  9994
2 39222   0.0206 146.5972 0001358 186.7657 245.0743  1.00273152 45048
ES'HAIL 1               
1 39233U 13044A   26066.22840267  .00000141  00000+0  00000+0 0  9997
2 39233   0.0561   2.6986 0003060 349.6762 280.2692  1.00272722 45608
